[{"OBJECT_NAME":"STARLINK-32477","OBJECT_ID":"2024-216G","EPOCH":"2026-03-09T22:00:01.999584","MEAN_MOTION":15.40035312,"ECCENTRICITY":0.00143368,"INCLINATION":42.9968,"RA_OF_ASC_NODE":249.1133,"ARG_OF_PERICENTER":299.5246,"MEAN_ANOMALY":249.0456,"EPHEMERIS_TYPE":0,"CLASSIFICATION_TYPE":"U","NORAD_CAT_ID":62038,"ELEMENT_SET_NO":999,"REV_AT_EPOCH":571,"BSTAR":0.0053221148,"MEAN_MOTION_DOT":0.00224343,"MEAN_MOTION_DDOT":0},{"OBJECT_NAME":"CZ-6A DEB","OBJECT_ID":"2022-151QB","EPOCH":"2026-03-08T18:03:47.471328","MEAN_MOTION":15.32168285,"ECCENTRICITY":0.00205863,"INCLINATION":98.6246,"RA_OF_ASC_NODE":151.4486,"ARG_OF_PERICENTER":181.9757,"MEAN_ANOMALY":178.1404,"EPHEMERIS_TYPE":0,"CLASSIFICATION_TYPE":"U","NORAD_CAT_ID":54890,"ELEMENT_SET_NO":999,"REV_AT_EPOCH":17659,"BSTAR":0.012866954,"MEAN_MOTION_DOT":0.00424465,"MEAN_MOTION_DDOT":0}]
